{
    "links": {
        "self": "http://www.neowsapp.com/rest/v1/neo/3838027?api_key=iIulBulltgU6a56xZRHN4H3l9WmuAYTsLGpBGhQ2"
    },
    "id": "3838027",
    "neo_reference_id": "3838027",
    "name": "(2019 BB3)",
    "designation": "2019 BB3",
    "nasa_jpl_url": "http://ssd.jpl.nasa.gov/sbdb.cgi?sstr=3838027",
    "absolute_magnitude_h": 27.2,
    "estimated_diameter": {
        "kilometers": {
            "estimated_diameter_min": 0.0096506147,
            "estimated_diameter_max": 0.0215794305
        },
        "meters": {
            "estimated_diameter_min": 9.6506146958,
            "estimated_diameter_max": 21.5794304844
        },
        "miles": {
            "estimated_diameter_min": 0.0059966121,
            "estimated_diameter_max": 0.0134088323
        },
        "feet": {
            "estimated_diameter_min": 31.6621227185,
            "estimated_diameter_max": 70.7986587106
        }
    },
    "is_potentially_hazardous_asteroid": false,
    "close_approach_data": [
        {
            "close_approach_date": "2019-01-21",
            "close_approach_date_full": "2019-Jan-21 06:59",
            "epoch_date_close_approach": 1548053940000,
            "relative_velocity": {
                "kilometers_per_second": "13.691438641",
                "kilometers_per_hour": "49289.1791076817",
                "miles_per_hour": "30626.3790961037"
            },
            "miss_distance": {
                "astronomical": "0.0080875341",
                "lunar": "3.1460507649",
                "kilometers": "1209877.874912367",
                "miles": "751783.2508179846"
            },
            "orbiting_body": "Earth"
        },
        {
            "close_approach_date": "2019-01-21",
            "close_approach_date_full": "2019-Jan-21 13:51",
            "epoch_date_close_approach": 1548078660000,
            "relative_velocity": {
                "kilometers_per_second": "13.5986893251",
                "kilometers_per_hour": "48955.2815703236",
                "miles_per_hour": "30418.9081512936"
            },
            "miss_distance": {
                "astronomical": "0.0076677969",
                "lunar": "2.9827729941",
                "kilometers": "1147086.083832603",
                "miles": "712766.2410838014"
            },
            "orbiting_body": "Moon"
        }
    ],
    "orbital_data": {
        "orbit_id": "1",
        "orbit_determination_date": "2019-01-28 10:12:06",
        "first_observation_date": "2019-01-26",
        "last_observation_date": "2019-01-28",
        "data_arc_in_days": 2,
        "observations_used": 16,
        "orbit_uncertainty": "8",
        "minimum_orbit_intersection": ".00786826",
        "jupiter_tisserand_invariant": "3.911",
        "epoch_osculation": "2458510.5",
        "eccentricity": ".5522116783349545",
        "semi_major_axis": "1.770026749908401",
        "inclination": "3.282258795268346",
        "ascending_node_longitude": "308.3849541103999",
        "orbital_period": "860.1380728288776",
        "perihelion_distance": ".7925973076437183",
        "perihelion_argument": "108.8886841234077",
        "aphelion_distance": "2.747456192173085",
        "perihelion_time": "2458462.384999430078",
        "mean_anomaly": "20.13792988863309",
        "mean_motion": ".4185374550576615",
        "equinox": "J2000",
        "orbit_class": {
            "orbit_class_type": "APO",
            "orbit_class_description": "Near-Earth asteroid orbits which cross the Earth’s orbit similar to that of 1862 Apollo",
            "orbit_class_range": "a (semi-major axis) > 1.0 AU; q (perihelion) < 1.017 AU"
        }
    },
    "is_sentry_object": false
}